{"type": "FeatureCollection", "features": [ {"type": "Feature", "properties": {"norad_id": 66503, "name": "STARLINK-35917", "group": "last-30-days", "lat": -38.90468124645628, "lon": 85.06527372534188, "alt_km": 417.1378909833966, "timestamp": "2025-12-09T07:41:31.972206+00:00", "meta": {"OBJECT_NAME": "STARLINK-35917", "OBJECT_ID": "2025-263U", "EPOCH": "2025-12-08T22:00:03.000096", "MEAN_MOTION": 15.50630047, "ECCENTRICITY": 0.00016996, "INCLINATION": 43.0004, "RA_OF_ASC_NODE": 147.43, "ARG_OF_PERICENTER": 293.9842, "MEAN_ANOMALY": 262.1416, "EPHEMERIS_TYPE": 0, "CLASSIFICATION_TYPE": "U", "NORAD_CAT_ID": 66503, "ELEMENT_SET_NO": 999, "REV_AT_EPOCH": 502, "BSTAR": -0.0016170792, "MEAN_MOTION_DOT": -0.00094248, "MEAN_MOTION_DDOT": 0}, "tle": {"line1": "1 66503U 25263U   25342.91670139 -.00094248  00000+0 -16171-2 0  9996", "line2": "2 66503  43.0004 147.4300 0001699 293.9842 262.1416 15.50630047  5024"}}, "geometry": {"type": "Point", "coordinates": [85.06527372534188, -38.90468124645628]}}, {"type": "Feature", "properties": {"norad_id": 66504, "name": "STARLINK-35916", "group": "last-30-days", "lat": 27.806041481742348, "lon": -68.13157064232686, "alt_km": 440.33184282914135, "timestamp": "2025-12-09T07:41:31.972217+00:00", "meta": {"OBJECT_NAME": "STARLINK-35916", "OBJECT_ID": "2025-263V", "EPOCH": "2025-12-08T22:00:03.000096", "MEAN_MOTION": 15.40635534, "ECCENTRICITY": 0.0001451, "INCLINATION": 43.0005, "RA_OF_ASC_NODE": 148.6629, "ARG_OF_PERICENTER": 276.407, "MEAN_ANOMALY": 138.0079, "EPHEMERIS_TYPE": 0, "CLASSIFICATION_TYPE": "U", "NORAD_CAT_ID": 66504, "ELEMENT_SET_NO": 999, "REV_AT_EPOCH": 502, "BSTAR": 0.0026760224, "MEAN_MOTION_DOT": 0.00112907, "MEAN_MOTION_DDOT": 0}, "tle": {"line1": "1 66504U 25263V   25342.91670139  .00112907  00000+0  26760-2 0  9993", "line2": "2 66504  43.0005 148.6629 0001451 276.4070 138.0079 15.40635534  5029"}}, "geometry": {"type": "Point", "coordinates": [-68.13157064232686, 27.806041481742348]}}, {"type": "Feature", "properties": {"norad_id": 66505, "name": "STARLINK-34766", "group": "last-30-days", "lat": -41.129075596135145, "lon": 75.51361772330421, "alt_km": 417.2003791683492, "timestamp": "2025-12-09T07:41:31.972240+00:00", "meta": {"OBJECT_NAME": "STARLINK-34766", "OBJECT_ID": "2025-263W", "EPOCH": "2025-12-08T22:00:03.000096", "MEAN_MOTION": 15.50609273, "ECCENTRICITY": 0.00017767, "INCLINATION": 43.0001, "RA_OF_ASC_NODE": 147.4483, "ARG_OF_PERICENTER": 291.525, "MEAN_ANOMALY": 256.9517, "EPHEMERIS_TYPE": 0, "CLASSIFICATION_TYPE": "U", "NORAD_CAT_ID": 66505, "ELEMENT_SET_NO": 999, "REV_AT_EPOCH": 502, "BSTAR": -0.0011794334, "MEAN_MOTION_DOT": -0.00069003, "MEAN_MOTION_DDOT": 0}, "tle": {"line1": "1 66505U 25263W   25342.91670139 -.00069003  00000+0 -11794-2 0  9995", "line2": "2 66505  43.0001 147.4483 0001776 291.5250 256.9517 15.50609273  5028"}}, "geometry": {"type": "Point", "coordinates": [75.51361772330421, -41.129075596135145]}}, {"type": "Feature", "properties": {"norad_id": 66506, "name": "STARLINK-34765", "group": "last-30-days", "lat": -40.648454623805335, "lon": 77.95801415895633, "alt_km": 417.23421515175414, "timestamp": "2025-12-09T07:41:31.972250+00:00", "meta": {"OBJECT_NAME": "STARLINK-34765", "OBJECT_ID": "2025-263X", "EPOCH": "2025-12-08T22:00:03.000096", "MEAN_MOTION": 15.50618787, "ECCENTRICITY": 0.00016944, "INCLINATION": 43.0004, "RA_OF_ASC_NODE": 147.445, "ARG_OF_PERICENTER": 292.3155, "MEAN_ANOMALY": 258.0696, "EPHEMERIS_TYPE": 0, "CLASSIFICATION_TYPE": "U", "NORAD_CAT_ID": 66506, "ELEMENT_SET_NO": 999, "REV_AT_EPOCH": 502, "BSTAR": -0.0014131037, "MEAN_MOTION_DOT": -0.00082492, "MEAN_MOTION_DDOT": 0}, "tle": {"line1": "1 66506U 25263X   25342.91670139 -.00082492  00000+0 -14131-2 0  9991", "line2": "2 66506  43.0004 147.4450 0001694 292.3155 258.0696 15.50618787  5029"}}, "geometry": {"type": "Point", "coordinates": [77.95801415895633, -40.648454623805335]}}, {"type": "Feature", "properties": {"norad_id": 66507, "name": "STARLINK-34767", "group": "last-30-days", "lat": -39.53535840315987, "lon": 82.73091689066817, "alt_km": 417.3207292643792, "timestamp": "2025-12-09T07:41:31.972260+00:00", "meta": {"OBJECT_NAME": "STARLINK-34767", "OBJECT_ID": "2025-263Y", "EPOCH": "2025-12-08T22:00:03.000096", "MEAN_MOTION": 15.50545755, "ECCENTRICITY": 0.00014542, "INCLINATION": 43.0004, "RA_OF_ASC_NODE": 147.4343, "ARG_OF_PERICENTER": 276.5155, "MEAN_ANOMALY": 277.7337, "EPHEMERIS_TYPE": 0, "CLASSIFICATION_TYPE": "U", "NORAD_CAT_ID": 66507, "ELEMENT_SET_NO": 999, "REV_AT_EPOCH": 502, "BSTAR": 0.00051374276, "MEAN_MOTION_DOT": 0.00029876, "MEAN_MOTION_DDOT": 0}, "tle": {"line1": "1 66507U 25263Y   25342.91670139  .00029876  00000+0  51374-3 0  9998", "line2": "2 66507  43.0004 147.4343 0001454 276.5155 277.7337 15.50545755  5023"}}, "geometry": {"type": "Point", "coordinates": [82.73091689066817, -39.53535840315987]}}, {"type": "Feature", "properties": {"norad_id": 66508, "name": "STARLINK-35608", "group": "last-30-days", "lat": -37.51073462547845, "lon": 89.59503833337016, "alt_km": 417.05680331588064, "timestamp": "2025-12-09T07:41:31.972270+00:00", "meta": {"OBJECT_NAME": "STARLINK-35608", "OBJECT_ID": "2025-263Z", "EPOCH": "2025-12-08T22:00:03.000096", "MEAN_MOTION": 15.50635187, "ECCENTRICITY": 0.0001702, "INCLINATION": 43.0003, "RA_OF_ASC_NODE": 147.4203, "ARG_OF_PERICENTER": 294.7329, "MEAN_ANOMALY": 265.2203, "EPHEMERIS_TYPE": 0, "CLASSIFICATION_TYPE": "U", "NORAD_CAT_ID": 66508, "ELEMENT_SET_NO": 999, "REV_AT_EPOCH": 502, "BSTAR": -0.0016554881, "MEAN_MOTION_DOT": -0.00096469, "MEAN_MOTION_DDOT": 0}, "tle": {"line1": "1 66508U 25263Z   25342.91670139 -.00096469  00000+0 -16555-2 0  9994", "line2": "2 66508  43.0003 147.4203 0001702 294.7329 265.2203 15.50635187  5022"}}, "geometry": {"type": "Point", "coordinates": [89.59503833337016, -37.51073462547845]}}, {"type": "Feature", "properties": {"norad_id": 66509, "name": "STARLINK-35598", "group": "last-30-days", "lat": -34.23783481531282, "lon": 98.12268128867736, "alt_km": 417.0978849981002, "timestamp": "2025-12-09T07:41:31.972283+00:00", "meta": {"OBJECT_NAME": "STARLINK-35598", "OBJECT_ID": "2025-263AA", "EPOCH": "2025-12-08T22:00:03.000096", "MEAN_MOTION": 15.50549297, "ECCENTRICITY": 0.00015254, "INCLINATION": 43.0003, "RA_OF_ASC_NODE": 147.3993, "ARG_OF_PERICENTER": 275.2441, "MEAN_ANOMALY": 292.4225, "EPHEMERIS_TYPE": 0, "CLASSIFICATION_TYPE": "U", "NORAD_CAT_ID": 66509, "ELEMENT_SET_NO": 999, "REV_AT_EPOCH": 502, "BSTAR": 0.00040510214, "MEAN_MOTION_DOT": 0.0002347, "MEAN_MOTION_DDOT": 0}, "tle": {"line1": "1 66509U 25263AA  25342.91670139  .00023470  00000+0  40510-3 0  9994", "line2": "2 66509  43.0003 147.3993 0001525 275.2441 292.4225 15.50549297  5022"}}, "geometry": {"type": "Point", "coordinates": [98.12268128867736, -34.23783481531282]}}, {"type": "Feature", "properties": {"norad_id": 66510, "name": "STARLINK-35600", "group": "last-30-days", "lat": -36.749908218922805, "lon": 91.79392280764544, "alt_km": 417.2402560757655, "timestamp": "2025-12-09T07:41:31.972295+00:00", "meta": {"OBJECT_NAME": "STARLINK-35600", "OBJECT_ID": "2025-263AB", "EPOCH": "2025-12-08T22:00:03.000096", "MEAN_MOTION": 15.50553037, "ECCENTRICITY": 0.0001454, "INCLINATION": 43.0003, "RA_OF_ASC_NODE": 147.4144, "ARG_OF_PERICENTER": 275.1506, "MEAN_ANOMALY": 286.7673, "EPHEMERIS_TYPE": 0, "CLASSIFICATION_TYPE": "U", "NORAD_CAT_ID": 66510, "ELEMENT_SET_NO": 999, "REV_AT_EPOCH": 502, "BSTAR": 0.0002800353, "MEAN_MOTION_DOT": 0.00016105, "MEAN_MOTION_DDOT": 0}, "tle": {"line1": "1 66510U 25263AB  25342.91670139  .00016105  00000+0  28004-3 0  9997", "line2": "2 66510  43.0003 147.4144 0001454 275.1506 286.7673 15.50553037  5025"}}, "geometry": {"type": "Point", "coordinates": [91.79392280764544, -36.749908218922805]}}, {"type": "Feature", "properties": {"norad_id": 66511, "name": "STARLINK-35444", "group": "last-30-days", "lat": -35.116326726006456, "lon": 96.04656633659906, "alt_km": 417.0086229730887, "timestamp": "2025-12-09T07:41:31.972306+00:00", "meta": {"OBJECT_NAME": "STARLINK-35444", "OBJECT_ID": "2025-263AC", "EPOCH": "2025-12-08T22:00:03.000096", "MEAN_MOTION": 15.50622254, "ECCENTRICITY": 0.00015527, "INCLINATION": 43.0002, "RA_OF_ASC_NODE": 147.4052, "ARG_OF_PERICENTER": 291.6691, "MEAN_ANOMALY": 274.0207, "EPHEMERIS_TYPE": 0, "CLASSIFICATION_TYPE": "U", "NORAD_CAT_ID": 66511, "ELEMENT_SET_NO": 999, "REV_AT_EPOCH": 502, "BSTAR": -0.0010751862, "MEAN_MOTION_DOT": -0.00063009, "MEAN_MOTION_DDOT": 0}, "tle": {"line1": "1 66511U 25263AC  25342.91670139 -.00063009  00000+0 -10752-2 0  9995", "line2": "2 66511  43.0002 147.4052 0001552 291.6691 274.0207 15.50622254  5021"}}, "geometry": {"type": "Point", "coordinates": [96.04656633659906, -35.116326726006456]}}, {"type": "Feature", "properties": {"norad_id": 66512, "name": "STARLINK-35366", "group": "last-30-days", "lat": -33.32614773413516, "lon": 100.15326810675688, "alt_km": 416.9823178739989, "timestamp": "2025-12-09T07:41:31.972318+00:00", "meta": {"OBJECT_NAME": "STARLINK-35366", "OBJECT_ID": "2025-263AD", "EPOCH": "2025-12-08T22:00:03.000096", "MEAN_MOTION": 15.50636859, "ECCENTRICITY": 0.0001529, "INCLINATION": 43.0002, "RA_OF_ASC_NODE": 147.3951, "ARG_OF_PERICENTER": 290.5806, "MEAN_ANOMALY": 278.9592, "EPHEMERIS_TYPE": 0, "CLASSIFICATION_TYPE": "U", "NORAD_CAT_ID": 66512, "ELEMENT_SET_NO": 999, "REV_AT_EPOCH": 502, "BSTAR": -0.0017196197, "MEAN_MOTION_DOT": -0.0010015, "MEAN_MOTION_DDOT": 0}, "tle": {"line1": "1 66512U 25263AD  25342.91670139 -.00100150  00000+0 -17196-2 0  9994", "line2": "2 66512  43.0002 147.3951 0001529 290.5806 278.9592 15.50636859  5025"}}, "geometry": {"type": "Point", "coordinates": [100.15326810675688, -33.32614773413516]}}]}